FALCONSAT-10            
1 58291U 23174AM  26068.70247784  .00006748  00000+0  25969-3 0  9991
2 58291  97.3865 145.7938 0008932 169.5942 190.5483 15.26670596129582
STARLINK-34029          
1 63805U 25092B   26068.31763039  .00028942  00000+0  10565-2 0  9997
2 63805  42.9979 175.0003 0001862 278.4208  81.6432 15.27599019 48552
